start=new Date('2022-09-19T00:00:00.000Z').valueOf();
sats=[{"SITE":"AFETR","RA_OF_ASC_NODE":"85.7350","OBJECT_ID":"2022-053H","ECCENTRICITY":"0.00021130","SEMIMAJOR_AXIS":"6917.897","FILE":"3577422","COUNTRY_CODE":"US","EPOCH":"2022-09-18T20:06:30.852576","MEAN_MOTION":"15.08834581","CLASSIFICATION_TYPE":"U","REV_AT_EPOCH":"1964","REF_FRAME":"TEME","INCLINATION":"53.2180","GP_ID":"212967395","OBJECT_NAME":"STARLINK-4037","PERIOD":"95.438","APOAPSIS":"541.224","ELEMENT_SET_NO":"999","TIME_SYSTEM":"UTC","MEAN_MOTION_DDOT":"0.0000000000000","BSTAR":"0.00009222300000","CENTER_NAME":"EARTH","TLE_LINE1":"1 52663U 22053H   22261.83785709  .00001180  00000-0  92223-4 0  9996","MEAN_ELEMENT_THEORY":"SGP4","ARG_OF_PERICENTER":"44.8495","PERIAPSIS":"538.300","DECAY_DATE":null,"EPHEMERIS_TYPE":"0","OBJECT_TYPE":"PAYLOAD","LAUNCH_DATE":"2022-05-18","TLE_LINE2":"2 52663  53.2180  85.7350 0002113  44.8495 315.2667 15.08834581 19645","MEAN_ANOMALY":"315.2667","RCS_SIZE":"MEDIUM","NORAD_CAT_ID":"52663","MEAN_MOTION_DOT":"0.00001180"},{"OBJECT_TYPE":"PAYLOAD","TLE_LINE2":"2 52664  53.2177  85.9965 0001709  54.7297 305.3855 15.08828623 19634","LAUNCH_DATE":"2022-05-18","MEAN_ANOMALY":"305.3855","RCS_SIZE":"LARGE","NORAD_CAT_ID":"52664","MEAN_MOTION_DOT":"-0.00000273","TLE_LINE1":"1 52664U 22053J   22261.77896977 -.00000273  00000-0  93434-6 0  9990","MEAN_ELEMENT_THEORY":"SGP4","ARG_OF_PERICENTER":"54.7297","DECAY_DATE":null,"PERIAPSIS":"538.598","EPHEMERIS_TYPE":"0","CLASSIFICATION_TYPE":"U","MEAN_MOTION":"15.08828623","REF_FRAME":"TEME","REV_AT_EPOCH":"1963","GP_ID":"212968114","INCLINATION":"53.2177","OBJECT_NAME":"STARLINK-4070","PERIOD":"95.438","APOAPSIS":"540.962","TIME_SYSTEM":"UTC","ELEMENT_SET_NO":"999","MEAN_MOTION_DDOT":"0.0000000000000","CENTER_NAME":"EARTH","BSTAR":"0.00000093434000","OBJECT_ID":"2022-053J","SITE":"AFETR","RA_OF_ASC_NODE":"85.9965","ECCENTRICITY":"0.00017090","FILE":"3577422","SEMIMAJOR_AXIS":"6917.915","COUNTRY_CODE":"US","EPOCH":"2022-09-18T18:41:42.988128"},{"OBJECT_ID":"2022-053K","SITE":"AFETR","RA_OF_ASC_NODE":"85.7845","ECCENTRICITY":"0.00016340","FILE":"3577422","SEMIMAJOR_AXIS":"6917.904","COUNTRY_CODE":"US","EPOCH":"2022-09-18T19:50:36.474720","MEAN_MOTION":"15.08832316","CLASSIFICATION_TYPE":"U","REF_FRAME":"TEME","REV_AT_EPOCH":"1964","GP_ID":"212967959","INCLINATION":"53.2189","OBJECT_NAME":"STARLINK-4064","PERIOD":"95.438","APOAPSIS":"540.899","TIME_SYSTEM":"UTC","ELEMENT_SET_NO":"999","MEAN_MOTION_DDOT":"0.0000000000000","CENTER_NAME":"EARTH","BSTAR":"0.00002424800000","TLE_LINE1":"1 52665U 22053K   22261.82681105  .00000098  00000-0  24248-4 0  9991","MEAN_ELEMENT_THEORY":"SGP4","ARG_OF_PERICENTER":"51.4610","DECAY_DATE":null,"PERIAPSIS":"538.638","EPHEMERIS_TYPE":"0","OBJECT_TYPE":"PAYLOAD","TLE_LINE2":"2 52665  53.2189  85.7845 0001634  51.4610 308.6528 15.08832316 19641","LAUNCH_DATE":"2022-05-18","MEAN_ANOMALY":"308.6528","RCS_SIZE":"LARGE","NORAD_CAT_ID":"52665","MEAN_MOTION_DOT":"0.00000098"},{"MEAN_MOTION_DOT":"0.00001499","NORAD_CAT_ID":"52666","MEAN_ANOMALY":"302.7520","RCS_SIZE":"LARGE","OBJECT_TYPE":"PAYLOAD","TLE_LINE2":"2 52666  53.2180  85.7533 0001657  57.3632 302.7520 15.08847137 19645","LAUNCH_DATE":"2022-05-18","EPHEMERIS_TYPE":"0","ARG_OF_PERICENTER":"57.3632","DECAY_DATE":null,"PERIAPSIS":"538.577","MEAN_ELEMENT_THEORY":"SGP4","TLE_LINE1":"1 52666U 22053L   22261.83415868  .00001499  00000-0  11226-3 0  9991","MEAN_MOTION_DDOT":"0.0000000000000","CENTER_NAME":"EARTH","BSTAR":"0.00011226000000","OBJECT_NAME":"STARLINK-4079","APOAPSIS":"540.870","TIME_SYSTEM":"UTC","PERIOD":"95.437","ELEMENT_SET_NO":"999","REF_FRAME":"TEME","REV_AT_EPOCH":"1964","GP_ID":"212968477","INCLINATION":"53.2180","CLASSIFICATION_TYPE":"U","MEAN_MOTION":"15.08847137","EPOCH":"2022-09-18T20:01:11.309952","FILE":"3577422","SEMIMAJOR_AXIS":"6917.859","COUNTRY_CODE":"US","ECCENTRICITY":"0.00016570","SITE":"AFETR","RA_OF_ASC_NODE":"85.7533","OBJECT_ID":"2022-053L"},{"MEAN_MOTION_DDOT":"0.0000000000000","BSTAR":"0.00007753200000","CENTER_NAME":"EARTH","OBJECT_NAME":"STARLINK-4076","TIME_SYSTEM":"UTC","APOAPSIS":"540.970","PERIOD":"95.439","ELEMENT_SET_NO":"999","REV_AT_EPOCH":"1964","REF_FRAME":"TEME","INCLINATION":"53.2190","GP_ID":"212967810","CLASSIFICATION_TYPE":"U","MEAN_MOTION":"15.08818333","EPOCH":"2022-09-18T19:45:20.123712","SEMIMAJOR_AXIS":"6917.947","FILE":"3577422","COUNTRY_CODE":"US","ECCENTRICITY":"0.00016750","RA_OF_ASC_NODE":"85.8011","SITE":"AFETR","OBJECT_ID":"2022-053M","MEAN_MOTION_DOT":"0.00000945","NORAD_CAT_ID":"52667","MEAN_ANOMALY":"295.5788","RCS_SIZE":"LARGE","OBJECT_TYPE":"PAYLOAD","LAUNCH_DATE":"2022-05-18","TLE_LINE2":"2 52667  53.2190  85.8011 0001675  64.5377 295.5788 15.08818333 19646","EPHEMERIS_TYPE":"0","ARG_OF_PERICENTER":"64.5377","PERIAPSIS":"538.653","DECAY_DATE":null,"MEAN_ELEMENT_THEORY":"SGP4","TLE_LINE1":"1 52667U 22053M   22261.82314958  .00000945  00000-0  77532-4 0  9997"},{"ELEMENT_SET_NO":"999","APOAPSIS":"540.984","PERIOD":"95.438","TIME_SYSTEM":"UTC","OBJECT_NAME":"STARLINK-4067","BSTAR":"0.00008777200000","CENTER_NAME":"EARTH","MEAN_MOTION_DDOT":"0.0000000000000","CLASSIFICATION_TYPE":"U","MEAN_MOTION":"15.08837050","INCLINATION":"53.2185","GP_ID":"212967700","REV_AT_EPOCH":"1964","REF_FRAME":"TEME","COUNTRY_CODE":"US","SEMIMAJOR_AXIS":"6917.889","FILE":"3577422","EPOCH":"2022-09-18T19:55:53.811552","SITE":"AFETR","OBJECT_ID":"2022-053N","RA_OF_ASC_NODE":"85.7692","ECCENTRICITY":"0.00017780","NORAD_CAT_ID":"52668","MEAN_MOTION_DOT":"0.00001109","LAUNCH_DATE":"2022-05-18","TLE_LINE2":"2 52668  53.2185  85.7692 0001778  52.9424 307.1731 15.08837050 19648","OBJECT_TYPE":"PAYLOAD","RCS_SIZE":"LARGE","MEAN_ANOMALY":"307.1731","PERIAPSIS":"538.524","DECAY_DATE":null,"ARG_OF_PERICENTER":"52.9424","EPHEMERIS_TYPE":"0","TLE_LINE1":"1 52668U 22053N   22261.83048393  .00001109  00000-0  87772-4 0  9996","MEAN_ELEMENT_THEORY":"SGP4"},{"MEAN_MOTION":"15.08856157","CLASSIFICATION_TYPE":"U","GP_ID":"212967544","INCLINATION":"53.2192","REF_FRAME":"TEME","REV_AT_EPOCH":"1962","APOAPSIS":"540.748","TIME_SYSTEM":"UTC","PERIOD":"95.437","ELEMENT_SET_NO":"999","OBJECT_NAME":"STARLINK-3972","CENTER_NAME":"EARTH","BSTAR":"-0.00012684000000","MEAN_MOTION_DDOT":"0.0000000000000","SITE":"AFETR","RA_OF_ASC_NODE":"86.1487","OBJECT_ID":"2022-053P","ECCENTRICITY":"0.00015200","COUNTRY_CODE":"US","FILE":"3577422","SEMIMAJOR_AXIS":"6917.831","EPOCH":"2022-09-18T17:54:00.882720","TLE_LINE2":"2 52669  53.2192  86.1487 0001520  63.8517 296.2631 15.08856157 19627","LAUNCH_DATE":"2022-05-18","OBJECT_TYPE":"PAYLOAD","RCS_SIZE":"LARGE","MEAN_ANOMALY":"296.2631","NORAD_CAT_ID":"52669","MEAN_MOTION_DOT":"-0.00002307","TLE_LINE1":"1 52669U 22053P   22261.74584355 -.00002307  00000-0 -12684-3 0  9992","MEAN_ELEMENT_THEORY":"SGP4","DECAY_DATE":null,"PERIAPSIS":"538.644","ARG_OF_PERICENTER":"63.8517","EPHEMERIS_TYPE":"0"},{"SITE":"AFETR","OBJECT_ID":"2022-053Q","RA_OF_ASC_NODE":"85.7802","ECCENTRICITY":"0.00015630","COUNTRY_CODE":"US","SEMIMAJOR_AXIS":"6917.878","FILE":"3577422","EPOCH":"2022-09-18T19:51:58.887360","MEAN_MOTION":"15.08840869","CLASSIFICATION_TYPE":"U","INCLINATION":"53.2189","GP_ID":"212968268","REV_AT_EPOCH":"1964","REF_FRAME":"TEME","PERIOD":"95.437","APOAPSIS":"540.824","ELEMENT_SET_NO":"999","TIME_SYSTEM":"UTC","OBJECT_NAME":"STARLINK-4075","BSTAR":"0.00011132000000","CENTER_NAME":"EARTH","MEAN_MOTION_DDOT":"0.0000000000000","TLE_LINE1":"1 52670U 22053Q   22261.82776490  .00001484  00000-0  11132-3 0  9996","MEAN_ELEMENT_THEORY":"SGP4","PERIAPSIS":"538.661","DECAY_DATE":null,"ARG_OF_PERICENTER":"55.6464","EPHEMERIS_TYPE":"0","LAUNCH_DATE":"2022-05-18","TLE_LINE2":"2 52670  53.2189  85.7802 0001563  55.6464 304.4676 15.08840869 19644","OBJECT_TYPE":"PAYLOAD","RCS_SIZE":"MEDIUM","MEAN_ANOMALY":"304.4676","NORAD_CAT_ID":"52670","MEAN_MOTION_DOT":"0.00001484"},{"MEAN_MOTION":"15.08835762","CLASSIFICATION_TYPE":"U","REV_AT_EPOCH":"1963","REF_FRAME":"TEME","INCLINATION":"53.2203","GP_ID":"212967396","OBJECT_NAME":"STARLINK-4071","APOAPSIS":"540.925","ELEMENT_SET_NO":"999","PERIOD":"95.438","TIME_SYSTEM":"UTC","MEAN_MOTION_DDOT":"0.0000000000000","BSTAR":"0.00008590700000","CENTER_NAME":"EARTH","SITE":"AFETR","RA_OF_ASC_NODE":"85.8645","OBJECT_ID":"2022-053R","ECCENTRICITY":"0.00016870","SEMIMAJOR_AXIS":"6917.893","FILE":"3577422","COUNTRY_CODE":"US","EPOCH":"2022-09-18T19:24:06.361344","OBJECT_TYPE":"PAYLOAD","LAUNCH_DATE":"2022-05-18","TLE_LINE2":"2 52671  53.2203  85.8645 0001687  51.0573 309.0569 15.08835762 19633","MEAN_ANOMALY":"309.0569","RCS_SIZE":"LARGE","NORAD_CAT_ID":"52671","MEAN_MOTION_DOT":"0.00001079","TLE_LINE1":"1 52671U 22053R   22261.80840696  .00001079  00000-0  85907-4 0  9997","MEAN_ELEMENT_THEORY":"SGP4","ARG_OF_PERICENTER":"51.0573","PERIAPSIS":"538.591","DECAY_DATE":null,"EPHEMERIS_TYPE":"0"},{"SITE":"AFETR","OBJECT_ID":"2022-053S","RA_OF_ASC_NODE":"85.8178","ECCENTRICITY":"0.00016580","COUNTRY_CODE":"US","SEMIMAJOR_AXIS":"6917.816","FILE":"3577422","EPOCH":"2022-09-18T19:40:00.196608","MEAN_MOTION":"15.08861201","CLASSIFICATION_TYPE":"U","INCLINATION":"53.2189","GP_ID":"212968115","REV_AT_EPOCH":"1963","REF_FRAME":"TEME","PERIOD":"95.436","APOAPSIS":"540.828","ELEMENT_SET_NO":"999","TIME_SYSTEM":"UTC","OBJECT_NAME":"STARLINK-4073","BSTAR":"-0.00024233000000","CENTER_NAME":"EARTH","MEAN_MOTION_DDOT":"0.0000000000000","TLE_LINE1":"1 52672U 22053S   22261.81944672 -.00004145  00000-0 -24233-3 0  9991","MEAN_ELEMENT_THEORY":"SGP4","PERIAPSIS":"538.534","DECAY_DATE":null,"ARG_OF_PERICENTER":"54.8209","EPHEMERIS_TYPE":"0","LAUNCH_DATE":"2022-05-18","TLE_LINE2":"2 52672  53.2189  85.8178 0001658  54.8209 305.2939 15.08861201 19639","OBJECT_TYPE":"PAYLOAD","RCS_SIZE":"LARGE","MEAN_ANOMALY":"305.2939","NORAD_CAT_ID":"52672","MEAN_MOTION_DOT":"-0.00004145"}];
